IRIDIUM 136             
1 42962U 17061H   23245.00525873  .00000298  00000+0  99503-4 0  9992
2 42962  86.4053  91.1991 0003169  90.1233 270.0326 14.34215180308750
